[{"OBJECT_NAME":"IONOSFERA-M 4","OBJECT_ID":"2025-155B","EPOCH":"2026-03-09T23:04:46.382016","MEAN_MOTION":14.21468398,"ECCENTRICITY":0.0001693,"INCLINATION":98.5919,"RA_OF_ASC_NODE":33.341,"ARG_OF_PERICENTER":103.4918,"MEAN_ANOMALY":256.6448,"EPHEMERIS_TYPE":0,"CLASSIFICATION_TYPE":"U","NORAD_CAT_ID":64877,"ELEMENT_SET_NO":999,"REV_AT_EPOCH":3230,"BSTAR":7.6908035e-5,"MEAN_MOTION_DOT":1.25e-6,"MEAN_MOTION_DDOT":0},{"OBJECT_NAME":"FENGYUN 1C DEB","OBJECT_ID":"1999-025ASB","EPOCH":"2026-03-09T17:53:00.607488","MEAN_MOTION":14.21160214,"ECCENTRICITY":0.0045034,"INCLINATION":99.0064,"RA_OF_ASC_NODE":146.2205,"ARG_OF_PERICENTER":12.461,"MEAN_ANOMALY":347.7669,"EPHEMERIS_TYPE":0,"CLASSIFICATION_TYPE":"U","NORAD_CAT_ID":30717,"ELEMENT_SET_NO":999,"REV_AT_EPOCH":97772,"BSTAR":0.001480634,"MEAN_MOTION_DOT":3.207e-5,"MEAN_MOTION_DDOT":0}]
